BEIDOU 3 (C01)          
1 36287U 10001A   21145.55535431 -.00000279  00000-0  00000-0 0  9991
2 36287   1.8381  45.1934 0004642  77.1469 101.3507  1.00269054 41622
BEIDOU 5 (C06)          
1 36828U 10036A   21145.65009332 -.00000017  00000-0  00000-0 0  9997
2 36828  54.1728 179.8049 0113094 235.3571 181.3858  1.00268101 39687
BEIDOU 6 (C04)          
1 37210U 10057A   21145.62238712 -.00000110  00000-0  00000+0 0  9992
2 37210   0.8034  44.9003 0002566 127.3019  95.2656  1.00271855 38746
BEIDOU 7 (C07)          
1 37256U 10068A   21145.25142282 -.00000243  00000-0  00000-0 0  9997
2 37256  50.9025 294.2736 0084439 215.1259 303.0189  1.00262020 38257
BEIDOU 8 (C08)          
1 37384U 11013A   21145.65353220 -.00000230  00000-0  00000+0 0  9995
2 37384  59.7477  58.1347 0052445 206.8317 331.9095  1.00260125 37132
BEIDOU 9 (C09)          
1 37763U 11038A   21145.56438050 -.00000004  00000-0  00000-0 0  9998
2 37763  54.4602 182.2499 0083082 226.4001 133.6564  1.00269965 36117
BEIDOU 10 (C10)         
1 37948U 11073A   21145.39343250 -.00000174  00000-0  00000-0 0  9998
2 37948  51.0049 293.8867 0071332 213.6035 331.2335  1.00258788 34861
BEIDOU 11 (C05)         
1 38091U 12008A   21145.58420345  .00000058  00000-0  00000-0 0  9999
2 38091   1.5037  67.1805 0008569 322.6873 122.6369  1.00276612 33948
BEIDOU 12 (C11)         
1 38250U 12018A   21145.24022978 -.00000077  00000-0  00000-0 0  9992
2 38250  56.7545   6.3782 0020434 250.2221 320.4250  1.86234448 61851
BEIDOU 13 (C12)         
1 38251U 12018B   21145.33641285 -.00000078  00000-0  00000-0 0  9992
2 38251  56.6761   5.7247 0011324 255.6369  63.9085  1.86234306 61858
BEIDOU 15 (C14)         
1 38775U 12050B   21145.37563547  .00000048  00000-0  00000-0 0  9993
2 38775  55.1982 124.7600 0016212 317.0390 226.2026  1.86232419 59232
BEIDOU 16 (C02)         
1 38953U 12059A   21145.63874788 -.00000173  00000-0  00000-0 0  9991
2 38953   1.9146  84.7377 0008664 289.7213 182.9871  1.00270978 31513
BEIDOU 17 (C31)         
1 40549U 15019A   21145.43591103 -.00000192  00000-0  00000-0 0  9990
2 40549  52.5330 317.2531 0037758 186.3241 353.1408  1.00271009 22546
BEIDOU 18 (C57)         
1 40748U 15037A   21145.03918884 -.00000077  00000-0  00000-0 0  9998
2 40748  55.9390   4.8359 0005314  23.7939   6.3785  1.86233462 39681
BEIDOU 19 (C58)         
1 40749U 15037B   21145.26401623 -.00000079  00000-0  00000-0 0  9994
2 40749  55.9429   4.8165 0005042 344.4911 332.6345  1.86232348 39679
BEIDOU 20 (C18)         
1 40938U 15053A   21145.33868552 -.00000170  00000-0  00000-0 0  9990
2 40938  52.1005 280.3241 0046146 190.9893 348.8241  1.00287839 20818
BEIDOU IGSO-6 (C13)     
1 41434U 16021A   21145.25859257 -.00000194  00000-0  00000-0 0  9997
2 41434  57.5303  56.8862 0038250 215.2434 160.9275  1.00274274 18944
BEIDOU-2 G7 (C03)       
1 41586U 16037A   21145.54078385 -.00000352  00000-0  00000-0 0  9995
2 41586   1.6529  66.5044 0010034  16.9616 105.0961  1.00268877 18258
BEIDOU-3 M1 (C19)       
1 43001U 17069A   21145.19937839  .00000051  00000-0  00000-0 0  9999
2 43001  55.3515 124.7151 0012429 290.7370 290.4318  1.86231833 24166
BEIDOU-3 M2 (C20)       
1 43002U 17069B   21145.53019315  .00000046  00000-0  00000-0 0  9992
2 43002  55.3515 124.7387 0010907 307.4984 178.9820  1.86231481 24161
BEIDOU-3 M3 (C27)       
1 43107U 18003A   21145.41357424 -.00000081  00000-0  00000-0 0  9990
2 43107  55.3820   5.9148 0005710  46.2399 167.9222  1.86232620 22927
BEIDOU-3 M4 (C28)       
1 43108U 18003B   21145.18854981 -.00000080  00000-0  00000-0 0  9994
2 43108  55.3747   5.9116 0001980 255.5425 212.9263  1.86232536 22923
BEIDOU-3 M5 (C21)       
1 43207U 18018A   21144.93699270  .00000055  00000-0  00000-0 0  9991
2 43207  55.3118 124.8513 0008177 323.3215  36.6010  1.86231723 22303
BEIDOU-3 M6 (C22)       
1 43208U 18018B   21145.00365664  .00000054  00000-0  00000-0 0  9997
2 43208  55.3135 124.8535 0010532 300.0664  59.8064  1.86231794 22309
BEIDOU-3 M7 (C29)       
1 43245U 18029A   21145.49702484 -.00000081  00000-0  00000-0 0  9999
2 43245  55.3147   3.7033 0001426  35.2706 145.0227  1.86232715 21466
BEIDOU-3 M8 (C30)       
1 43246U 18029B   21145.41150363 -.00000080  00000-0  10000-3 0  9998
2 43246  55.3112   3.7388 0004713   2.5449 166.5669  1.86232805 21452
BEIDOU IGSO-7 (C16)     
1 43539U 18057A   21145.66724822 -.00000051  00000-0  00000+0 0  9991
2 43539  55.0544 179.1598 0038613 222.6057 195.6009  1.00276204 10625
BEIDOU-3 M9 (C23)       
1 43581U 18062A   21145.38320813  .00000006  00000-0  00000-0 0  9995
2 43581  54.4097 245.3887 0003296 265.5851  94.5898  1.86231874 19206
BEIDOU-3 M10 (C24)      
1 43582U 18062B   21145.24629734  .00000005  00000-0  00000-0 0  9994
2 43582  54.4108 245.3823 0004179   1.4045 358.3064  1.86232086 19193
BEIDOU-3 M11 (C25)      
1 43602U 18067A   21145.30485017  .00000008  00000-0  00000-0 0  9996
2 43602  54.4860 243.9641 0006558   1.0132  80.2079  1.86231740 18696
BEIDOU-3 M12 (C26)      
1 43603U 18067B   21145.41931843  .00000009  00000-0  00000-0 0  9993
2 43603  54.4818 243.9253 0003772 348.0645  80.3693  1.86231642 18714
BEIDOU-3 M13 (C32)      
1 43622U 18072A   21145.54616676  .00000045  00000-0  00000-0 0  9998
2 43622  55.2770 124.3995 0008912 288.1095 255.5065  1.86231801 18222
BEIDOU-3 M14 (C33)      
1 43623U 18072B   21145.41120772  .00000047  00000-0  00000-0 0  9994
2 43623  55.2771 124.3953 0007113 306.1827 237.1866  1.86231829 18229
BEIDOU-3 M15 (C34)      
1 43647U 18078A   21145.29493880 -.00000080  00000-0  10000-3 0  9997
2 43647  55.2080   3.9036 0007285   3.1679 357.4797  1.86232854 17734
BEIDOU-3 M16 (C35)      
1 43648U 18078B   21145.14693502 -.00000079  00000-0  10000-3 0  9993
2 43648  55.2040   3.9145 0005424  14.6432 155.2796  1.86232391 17749
BEIDOU-3 G1 (C59)       
1 43683U 18085A   21145.40302845 -.00000274  00000-0  00000-0 0  9999
2 43683   1.0902 230.0164 0002536 359.0219 299.3099  1.00270150  9511
BEIDOU-3 M17 (C36)      
1 43706U 18093A   21145.58427925  .00000007  00000-0  00000+0 0  9992
2 43706  54.4905 245.2393 0009721 267.2727  92.6450  1.86231575 17102
BEIDOU-3 M18 (C37)      
1 43707U 18093B   21145.42001751  .00000007  00000-0  00000-0 0  9992
2 43707  54.4920 245.2341 0007605 293.3690  47.2560  1.86232167 17095
BEIDOU-3 IGSO-1 (C38)   
1 44204U 19023A   21145.68397568 -.00000241  00000-0  00000+0 0  9991
2 44204  55.9882  57.1643 0018699 193.9324 348.5376  1.00301790  7827
BEIDOU-2 G8             
1 44231U 19027A   21144.90152179 -.00000245  00000-0  00000-0 0  9991
2 44231   0.2930 337.8200 0005515 214.7457 159.1468  1.00267029  7524
BEIDOU-3 IGSO-2 (C39)   
1 44337U 19035A   21145.26019174 -.00000034  00000-0  00000-0 0  9990
2 44337  55.0872 175.2038 0020199 192.3037  75.6465  1.00288264  7159
BEIDOU-3 M23 (C45)      
1 44542U 19061A   21144.99882313  .00000004  00000-0  10000-3 0  9999
2 44542  54.7162 245.3246 0007413 327.5008  43.8468  1.86231276 11351
BEIDOU-3 M24 (C46)      
1 44543U 19061B   21144.58876632  .00000001  00000-0  10000-3 0  9999
2 44543  54.7150 245.3078 0004721 314.3515  52.8946  1.86231668 11354
BEIDOU-3 IGSO-3         
1 44709U 19073A   21144.94288685 -.00000195  00000-0  00000-0 0  9992
2 44709  57.8782 300.3962 0018909 197.4272 191.0763  1.00282580  5913
BEIDOU-3 M21            
1 44793U 19078A   21144.96023905 -.00000079  00000-0  10000-3 0  9999
2 44793  55.0582   3.9827 0007029   9.4228  81.3012  1.86232504 10216
BEIDOU-3 M22            
1 44794U 19078B   21145.16355689 -.00000080  00000-0  00000-0 0  9998
2 44794  55.0360   3.9756 0005164   7.1284 130.8492  1.86232909 10218
BEIDOU-3 M19            
1 44864U 19090A   21145.46409370  .00000047  00000-0  00000-0 0  9992
2 44864  55.2114 124.6349 0018174 269.5367 264.5348  1.86231933  9809
BEIDOU-3 M20            
1 44865U 19090B   21145.32153860  .00000049  00000-0  00000-0 0  9990
2 44865  55.2133 124.6702 0016965 282.7864 245.6300  1.86231936  9787
BEIDOU-3 G2             
1 45344U 20017A   21145.67821811 -.00000141  00000-0  00000+0 0  9993
2 45344   2.4605 335.9891 0003520 110.1286 121.5993  1.00271479  4731
BEIDOU-3 G3             
1 45807U 20040A   21145.68423740 -.00000351  00000-0  00000+0 0  9996
2 45807   2.3367 298.5516 0005277   8.7892 293.0330  1.00270786  3541
